start=new Date('2022-12-27T00:00:00.000Z').valueOf();
sats=[{"INCLINATION":"53.0548","DECAY_DATE":null,"TLE_LINE2":"2 48149  53.0548 359.3102 0002451  39.8024 320.3144 15.06397751 96505","ECCENTRICITY":"0.00024510","OBJECT_ID":"2021-027BK","REF_FRAME":"TEME","TLE_LINE1":"1 48149U 21027BK  22360.72542848  .00000069  00000-0  23551-4 0  9996","MEAN_ANOMALY":"320.3144","FILE":"3723236","PERIOD":"95.592","OBJECT_TYPE":"PAYLOAD","EPHEMERIS_TYPE":"0","RCS_SIZE":"LARGE","PERIAPSIS":"545.523","LAUNCH_DATE":"2021-04-07","GP_ID":"221523807","COUNTRY_CODE":"US","SITE":"AFETR","RA_OF_ASC_NODE":"359.3102","BSTAR":"0.00002355100000","ELEMENT_SET_NO":"999","MEAN_ELEMENT_THEORY":"SGP4","SEMIMAJOR_AXIS":"6925.355","TIME_SYSTEM":"UTC","MEAN_MOTION_DOT":"0.00000069","CENTER_NAME":"EARTH","MEAN_MOTION":"15.06397751","NORAD_CAT_ID":"48149","EPOCH":"2022-12-26T17:24:37.020672","APOAPSIS":"548.918","ARG_OF_PERICENTER":"39.8024","MEAN_MOTION_DDOT":"0.0000000000000","OBJECT_NAME":"STARLINK-2492","CLASSIFICATION_TYPE":"U","REV_AT_EPOCH":"9650"},{"SITE":"AFETR","RA_OF_ASC_NODE":"0.7675","ELEMENT_SET_NO":"999","BSTAR":"0.00022339000000","PERIAPSIS":"545.604","LAUNCH_DATE":"2021-04-07","RCS_SIZE":"LARGE","EPHEMERIS_TYPE":"0","GP_ID":"221490026","COUNTRY_CODE":"US","PERIOD":"95.592","OBJECT_TYPE":"PAYLOAD","INCLINATION":"53.0542","DECAY_DATE":null,"OBJECT_ID":"2021-027BL","REF_FRAME":"TEME","TLE_LINE2":"2 48150  53.0542   0.7675 0002294  39.0016 321.1138 15.06406746 96463","ECCENTRICITY":"0.00022940","TLE_LINE1":"1 48150U 21027BL  22360.39737533  .00003048  00000-0  22339-3 0  9990","FILE":"3722937","MEAN_ANOMALY":"321.1138","OBJECT_NAME":"STARLINK-2493","REV_AT_EPOCH":"9646","CLASSIFICATION_TYPE":"U","EPOCH":"2022-12-26T09:32:13.228512","APOAPSIS":"548.782","MEAN_MOTION_DDOT":"0.0000000000000","ARG_OF_PERICENTER":"39.0016","MEAN_MOTION_DOT":"0.00003048","TIME_SYSTEM":"UTC","CENTER_NAME":"EARTH","NORAD_CAT_ID":"48150","MEAN_MOTION":"15.06406746","MEAN_ELEMENT_THEORY":"SGP4","SEMIMAJOR_AXIS":"6925.328"},{"NORAD_CAT_ID":"48151","MEAN_MOTION":"15.06396948","MEAN_MOTION_DOT":"0.00001923","TIME_SYSTEM":"UTC","CENTER_NAME":"EARTH","MEAN_ELEMENT_THEORY":"SGP4","SEMIMAJOR_AXIS":"6925.358","REV_AT_EPOCH":"9651","CLASSIFICATION_TYPE":"U","OBJECT_NAME":"STARLINK-2503","APOAPSIS":"548.623","MEAN_MOTION_DDOT":"0.0000000000000","ARG_OF_PERICENTER":"48.3513","EPOCH":"2022-12-26T17:35:13.689312","OBJECT_TYPE":"PAYLOAD","PERIOD":"95.592","REF_FRAME":"TEME","OBJECT_ID":"2021-027BM","TLE_LINE2":"2 48151  53.0532 359.2788 0002022  48.3513 311.7649 15.06396948 96514","ECCENTRICITY":"0.00020220","TLE_LINE1":"1 48151U 21027BM  22360.73279733  .00001923  00000-0  14798-3 0  9992","MEAN_ANOMALY":"311.7649","FILE":"3723236","INCLINATION":"53.0532","DECAY_DATE":null,"RA_OF_ASC_NODE":"359.2788","ELEMENT_SET_NO":"999","BSTAR":"0.00014798000000","SITE":"AFETR","GP_ID":"221522805","COUNTRY_CODE":"US","PERIAPSIS":"545.823","LAUNCH_DATE":"2021-04-07","RCS_SIZE":"MEDIUM","EPHEMERIS_TYPE":"0"},{"CLASSIFICATION_TYPE":"U","REV_AT_EPOCH":"9261","OBJECT_NAME":"STARLINK-2567","APOAPSIS":"548.374","ARG_OF_PERICENTER":"68.7622","MEAN_MOTION_DDOT":"0.0000000000000","EPOCH":"2022-12-26T16:58:44.648544","MEAN_MOTION":"15.06406320","NORAD_CAT_ID":"48276","MEAN_MOTION_DOT":"-0.00002974","TIME_SYSTEM":"UTC","CENTER_NAME":"EARTH","MEAN_ELEMENT_THEORY":"SGP4","SEMIMAJOR_AXIS":"6925.329","RA_OF_ASC_NODE":"254.3963","ELEMENT_SET_NO":"999","BSTAR":"-0.00018081000000","SITE":"AFETR","GP_ID":"221523317","COUNTRY_CODE":"US","RCS_SIZE":"LARGE","EPHEMERIS_TYPE":"0","PERIAPSIS":"546.014","LAUNCH_DATE":"2021-04-29","OBJECT_TYPE":"PAYLOAD","PERIOD":"95.592","ECCENTRICITY":"0.00017040","TLE_LINE2":"2 48276  53.0536 254.3963 0001704  68.7622 291.3549 15.06406320 92614","REF_FRAME":"TEME","OBJECT_ID":"2021-036A","TLE_LINE1":"1 48276U 21036A   22360.70746121 -.00002974  00000-0 -18081-3 0  9995","MEAN_ANOMALY":"291.3549","FILE":"3723236","INCLINATION":"53.0536","DECAY_DATE":null},{"SITE":"AFETR","ELEMENT_SET_NO":"999","BSTAR":"-0.00001976500000","RA_OF_ASC_NODE":"218.4983","PERIAPSIS":"546.347","LAUNCH_DATE":"2021-04-29","EPHEMERIS_TYPE":"0","RCS_SIZE":"LARGE","COUNTRY_CODE":"US","GP_ID":"221524069","PERIOD":"95.592","OBJECT_TYPE":"PAYLOAD","DECAY_DATE":null,"INCLINATION":"53.0546","TLE_LINE1":"1 48277U 21036B   22360.90788571 -.00000576  00000-0 -19765-4 0  9990","FILE":"3723236","MEAN_ANOMALY":"270.0929","REF_FRAME":"TEME","OBJECT_ID":"2021-036B","TLE_LINE2":"2 48277  53.0546 218.4983 0001243  90.0203 270.0929 15.06401712 93134","ECCENTRICITY":"0.00012430","OBJECT_NAME":"STARLINK-2569","REV_AT_EPOCH":"9313","CLASSIFICATION_TYPE":"U","EPOCH":"2022-12-26T21:47:21.325344","MEAN_MOTION_DDOT":"0.0000000000000","ARG_OF_PERICENTER":"90.0203","APOAPSIS":"548.069","CENTER_NAME":"EARTH","MEAN_MOTION_DOT":"-0.00000576","TIME_SYSTEM":"UTC","NORAD_CAT_ID":"48277","MEAN_MOTION":"15.06401712","MEAN_ELEMENT_THEORY":"SGP4","SEMIMAJOR_AXIS":"6925.343"},{"APOAPSIS":"548.116","MEAN_MOTION_DDOT":"0.0000000000000","ARG_OF_PERICENTER":"96.9089","EPOCH":"2022-12-26T19:30:03.711744","REV_AT_EPOCH":"9290","CLASSIFICATION_TYPE":"U","OBJECT_NAME":"STARLINK-2543","MEAN_ELEMENT_THEORY":"SGP4","SEMIMAJOR_AXIS":"6925.289","NORAD_CAT_ID":"48278","MEAN_MOTION":"15.06419542","TIME_SYSTEM":"UTC","MEAN_MOTION_DOT":"0.00016690","CENTER_NAME":"EARTH","GP_ID":"221523820","COUNTRY_CODE":"US","PERIAPSIS":"546.192","LAUNCH_DATE":"2021-04-29","RCS_SIZE":"LARGE","EPHEMERIS_TYPE":"0","RA_OF_ASC_NODE":"233.9951","ELEMENT_SET_NO":"999","BSTAR":"0.00113610000000","SITE":"AFETR","OBJECT_ID":"2021-036C","REF_FRAME":"TEME","ECCENTRICITY":"0.00013890","TLE_LINE2":"2 48278  53.0532 233.9951 0001389  96.9089 263.2058 15.06419542 92906","FILE":"3723236","TLE_LINE1":"1 48278U 21036C   22360.81254296  .00016690  00000-0  11361-2 0  9997","MEAN_ANOMALY":"263.2058","INCLINATION":"53.0532","DECAY_DATE":null,"OBJECT_TYPE":"PAYLOAD","PERIOD":"95.591"},{"EPOCH":"2022-12-26T17:43:51.674592","APOAPSIS":"548.346","MEAN_MOTION_DDOT":"0.0000000000000","ARG_OF_PERICENTER":"66.9105","OBJECT_NAME":"STARLINK-2580","REV_AT_EPOCH":"9289","CLASSIFICATION_TYPE":"U","MEAN_ELEMENT_THEORY":"SGP4","SEMIMAJOR_AXIS":"6925.355","MEAN_MOTION_DOT":"0.00000899","TIME_SYSTEM":"UTC","CENTER_NAME":"EARTH","NORAD_CAT_ID":"48279","MEAN_MOTION":"15.06397950","PERIAPSIS":"546.094","LAUNCH_DATE":"2021-04-29","RCS_SIZE":"LARGE","EPHEMERIS_TYPE":"0","GP_ID":"221522568","COUNTRY_CODE":"US","SITE":"AFETR","RA_OF_ASC_NODE":"234.2423","ELEMENT_SET_NO":"999","BSTAR":"0.00007927100000","INCLINATION":"53.0541","DECAY_DATE":null,"REF_FRAME":"TEME","OBJECT_ID":"2021-036D","ECCENTRICITY":"0.00016260","TLE_LINE2":"2 48279  53.0541 234.2423 0001626  66.9105 293.2056 15.06397950 92892","FILE":"3723236","TLE_LINE1":"1 48279U 21036D   22360.73879253  .00000899  00000-0  79271-4 0  9995","MEAN_ANOMALY":"293.2056","PERIOD":"95.592","OBJECT_TYPE":"PAYLOAD"},{"COUNTRY_CODE":"US","GP_ID":"221522818","EPHEMERIS_TYPE":"0","RCS_SIZE":"LARGE","LAUNCH_DATE":"2021-04-29","PERIAPSIS":"546.123","ELEMENT_SET_NO":"999","BSTAR":"0.00006169600000","RA_OF_ASC_NODE":"303.6838","SITE":"AFETR","MEAN_ANOMALY":"294.1279","TLE_LINE1":"1 48280U 21036E   22360.86502866  .00000638  00000-0  61696-4 0  9997","FILE":"3723236","ECCENTRICITY":"0.00015820","TLE_LINE2":"2 48280  53.0552 303.6838 0001582  65.9876 294.1279 15.06398328 91933","REF_FRAME":"TEME","OBJECT_ID":"2021-036E","DECAY_DATE":null,"INCLINATION":"53.0552","OBJECT_TYPE":"PAYLOAD","PERIOD":"95.592","ARG_OF_PERICENTER":"65.9876","MEAN_MOTION_DDOT":"0.0000000000000","APOAPSIS":"548.314","EPOCH":"2022-12-26T20:45:38.476224","CLASSIFICATION_TYPE":"U","REV_AT_EPOCH":"9193","OBJECT_NAME":"STARLINK-2565","MEAN_ELEMENT_THEORY":"SGP4","SEMIMAJOR_AXIS":"6925.354","MEAN_MOTION":"15.06398328","NORAD_CAT_ID":"48280","CENTER_NAME":"EARTH","TIME_SYSTEM":"UTC","MEAN_MOTION_DOT":"0.00000638"},{"MEAN_ELEMENT_THEORY":"SGP4","SEMIMAJOR_AXIS":"6925.370","MEAN_MOTION":"15.06393084","NORAD_CAT_ID":"48281","TIME_SYSTEM":"UTC","MEAN_MOTION_DOT":"-0.00001832","CENTER_NAME":"EARTH","APOAPSIS":"548.274","ARG_OF_PERICENTER":"122.5290","MEAN_MOTION_DDOT":"0.0000000000000","EPOCH":"2022-12-26T01:57:45.228672","CLASSIFICATION_TYPE":"U","REV_AT_EPOCH":"9209","OBJECT_NAME":"STARLINK-2520","ECCENTRICITY":"0.00015000","TLE_LINE2":"2 48281  53.0551 287.1959 0001500 122.5290 237.5844 15.06393084 92094","REF_FRAME":"TEME","OBJECT_ID":"2021-036F","TLE_LINE1":"1 48281U 21036F   22360.08177348 -.00001832  00000-0 -10413-3 0  9994","MEAN_ANOMALY":"237.5844","FILE":"3722937","INCLINATION":"53.0551","DECAY_DATE":null,"OBJECT_TYPE":"PAYLOAD","PERIOD":"95.593","GP_ID":"221491041","COUNTRY_CODE":"US","RCS_SIZE":"LARGE","EPHEMERIS_TYPE":"0","LAUNCH_DATE":"2021-04-29","PERIAPSIS":"546.196","RA_OF_ASC_NODE":"287.1959","BSTAR":"-0.00010413000000","ELEMENT_SET_NO":"999","SITE":"AFETR"},{"SITE":"AFETR","BSTAR":"0.00004408000000","ELEMENT_SET_NO":"999","RA_OF_ASC_NODE":"288.8162","RCS_SIZE":"LARGE","EPHEMERIS_TYPE":"0","LAUNCH_DATE":"2021-04-29","PERIAPSIS":"546.349","COUNTRY_CODE":"US","GP_ID":"221524320","PERIOD":"95.592","OBJECT_TYPE":"PAYLOAD","DECAY_DATE":null,"INCLINATION":"53.0546","TLE_LINE1":"1 48282U 21036G   22360.83508482  .00000375  00000-0  44080-4 0  9992","FILE":"3723236","MEAN_ANOMALY":"270.9204","TLE_LINE2":"2 48282  53.0546 288.8162 0001249  89.1928 270.9204 15.06399889 92145","ECCENTRICITY":"0.00012490","REF_FRAME":"TEME","OBJECT_ID":"2021-036G","OBJECT_NAME":"STARLINK-2558","CLASSIFICATION_TYPE":"U","REV_AT_EPOCH":"9214","EPOCH":"2022-12-26T20:02:31.328448","ARG_OF_PERICENTER":"89.1928","MEAN_MOTION_DDOT":"0.0000000000000","APOAPSIS":"548.079","CENTER_NAME":"EARTH","TIME_SYSTEM":"UTC","MEAN_MOTION_DOT":"0.00000375","MEAN_MOTION":"15.06399889","NORAD_CAT_ID":"48282","MEAN_ELEMENT_THEORY":"SGP4","SEMIMAJOR_AXIS":"6925.349"}];
